; generated by PrusaSlicer 2.9.4 on 2026-04-12 at 14:07:46 UTC

; 

; external perimeters extrusion width = 0.45mm
; perimeters extrusion width = 0.45mm
; infill extrusion width = 0.45mm
; solid infill extrusion width = 0.45mm
; top infill extrusion width = 0.40mm
; first layer extrusion width = 0.42mm

M190 S60 ; set bed temperature and wait for it to be reached
M104 S195 ; set temperature
;TYPE:Custom
G28 ; home all axes
G1 Z5 F5000 ; lift nozzle
M109 S215 ; set temperature and wait for it to be reached
G21 ; set units to millimeters
G90 ; use absolute coordinates
M82 ; use absolute distances for extrusion
G92 E0
; Filament gcode
M107
;LAYER_CHANGE
;Z:0.35
;HEIGHT:0.35
G1 E-2 F2400
G92 E0
G1 Z.35 F7800
G1 X111.364 Y85.925
G1 E2 F2400
;TYPE:Skirt/Brim
;WIDTH:0.42
G1 F1800
G1 X113.099 Y84.552 E2.11104
G1 X116 Y83.828 E2.26109
G1 X136 Y83.828 E3.26481
G1 X138.177 Y84.224 E3.37586
G1 X140.075 Y85.364 E3.48697
G1 X141.448 Y87.099 E3.59801
G1 X142.172 Y90 E3.74806
G1 X142.172 Y110 E4.75178
G1 X141.776 Y112.177 E4.86283
G1 X140.636 Y114.075 E4.97394
G1 X138.901 Y115.448 E5.08498
G1 X136 Y116.172 E5.23503
G1 X116 Y116.172 E6.23875
G1 X113.823 Y115.776 E6.3498
G1 X111.925 Y114.636 E6.46091
G1 X110.552 Y112.901 E6.57195
G1 X109.828 Y110 E6.722
G1 X109.828 Y90 E7.72572
G1 X110.224 Y87.823 E7.83677
G1 X111.333 Y85.977 E7.94485
G1 E5.94485 F2400
G92 E0
G92 E0
G1 X116.9 Y90.9 F7800
G1 E2 F2400
;TYPE:Perimeter
;WIDTH:0.42
G1 F1800
G1 X135.1 Y90.9 E2.91338
G1 X135.1 Y109.1 E3.82676
G1 X116.9 Y109.1 E4.74014
G1 X116.9 Y90.96 E5.65051
G1 X116.555 Y90.555 F7800
G1 F1800
G1 X135.445 Y90.555 E6.59852
G1 X135.445 Y109.445 E7.54653
G1 X116.555 Y109.445 E8.49454
G1 X116.555 Y90.615 E9.43954
G1 X116.21 Y90.21 F7800
;TYPE:External perimeter
G1 F1800
G1 X135.79 Y90.21 E10.42218
G1 X135.79 Y109.79 E11.40482
G1 X116.21 Y109.79 E12.38746
G1 X116.21 Y90.27 E13.36709
G1 X116.606 Y90.211 F7800
G1 E11.36709 F2400
G92 E0
G1 X134.997 Y91.71 F7800
G1 E2 F2400
;TYPE:Solid infill
;WIDTH:0.424363
G1 F1800
G1 X134.446 Y91.158 E2.03964
G1 X133.952 Y91.158 E2.06475
G1 X134.842 Y92.048 E2.12872
G1 X134.842 Y92.542 E2.15383
G1 X133.458 Y91.158 E2.2533
G1 X132.964 Y91.158 E2.27841
G1 X134.842 Y93.036 E2.41338
G1 X134.842 Y93.53 E2.43849
G1 X132.47 Y91.158 E2.60897
G1 X131.976 Y91.158 E2.63408
G1 X134.842 Y94.024 E2.84006
G1 X134.842 Y94.518 E2.86517
G1 X131.482 Y91.158 E3.10666
G1 X130.988 Y91.158 E3.13177
G1 X134.842 Y95.012 E3.40876
G1 X134.842 Y95.506 E3.43387
G1 X130.494 Y91.158 E3.74637
G1 X130 Y91.158 E3.77148
G1 X134.842 Y96 E4.11948
G1 X134.842 Y96.494 E4.14459
G1 X129.506 Y91.158 E4.5281
G1 X129.012 Y91.158 E4.55321
G1 X134.842 Y96.988 E4.97222
G1 X134.842 Y97.482 E4.99733
G1 X128.518 Y91.158 E5.45184
G1 X128.025 Y91.158 E5.47689
G1 X134.842 Y97.975 E5.96684
G1 X134.842 Y98.469 E5.99195
G1 X127.531 Y91.158 E6.5174
G1 X127.037 Y91.158 E6.54251
G1 X134.842 Y98.963 E7.10347
G1 X134.842 Y99.457 E7.12858
G1 X126.543 Y91.158 E7.72504
G1 X126.049 Y91.158 E7.75015
G1 X134.842 Y99.951 E8.38211
G1 X134.842 Y100.445 E8.40722
G1 X125.555 Y91.158 E9.07469
G1 X125.061 Y91.158 E9.0998
G1 X134.842 Y100.939 E9.80277
G1 X134.842 Y101.433 E9.82788
G1 X124.567 Y91.158 E10.56636
G1 X124.073 Y91.158 E10.59147
G1 X134.842 Y101.927 E11.36545
G1 X134.842 Y102.421 E11.39056
G1 X123.579 Y91.158 E12.20005
G1 X123.085 Y91.158 E12.22516
G1 X134.842 Y102.915 E13.07015
G1 X134.842 Y103.409 E13.09526
G1 X122.591 Y91.158 E13.97576
G1 X122.098 Y91.158 E14.00081
G1 X134.842 Y103.902 E14.91674
G1 X134.842 Y104.396 E14.94185
G1 X121.604 Y91.158 E15.89328
G1 X121.11 Y91.158 E15.91839
G1 X134.842 Y104.89 E16.90533
G1 X134.842 Y105.384 E16.93044
G1 X120.616 Y91.158 E17.95288
G1 X120.122 Y91.158 E17.97799
G1 X134.842 Y105.878 E19.03594
G1 X134.842 Y106.372 E19.06105
G1 X119.628 Y91.158 E20.1545
G1 X119.134 Y91.158 E20.17961
G1 X134.842 Y106.866 E21.30857
G1 X134.842 Y107.36 E21.33368
G1 X118.64 Y91.158 E22.49814
G1 X118.146 Y91.158 E22.52325
G1 X134.842 Y107.854 E23.72321
G1 X134.842 Y108.348 E23.74832
G1 X117.652 Y91.158 E24.98379
G1 X117.158 Y91.158 E25.0089
G1 X134.842 Y108.842 E26.27987
G1 X134.348 Y108.842 E26.30498
G1 X117.158 Y91.652 E27.54045
G1 X117.158 Y92.146 E27.56556
G1 X133.854 Y108.842 E28.76552
G1 X133.36 Y108.842 E28.79063
G1 X117.158 Y92.64 E29.95509
G1 X117.158 Y93.134 E29.9802
G1 X132.866 Y108.842 E31.10916
G1 X132.372 Y108.842 E31.13427
G1 X117.158 Y93.628 E32.22772
G1 X117.158 Y94.122 E32.25283
G1 X131.878 Y108.842 E33.31078
G1 X131.384 Y108.842 E33.33589
G1 X117.158 Y94.616 E34.35833
G1 X117.158 Y95.11 E34.38344
G1 X130.89 Y108.842 E35.37038
G1 X130.396 Y108.842 E35.39549
G1 X117.158 Y95.604 E36.34692
G1 X117.158 Y96.098 E36.37203
G1 X129.902 Y108.842 E37.28796
G1 X129.408 Y108.842 E37.31307
G1 X117.158 Y96.592 E38.19349
G1 X117.158 Y97.085 E38.21854
G1 X128.915 Y108.842 E39.06353
G1 X128.421 Y108.842 E39.08864
G1 X117.158 Y97.579 E39.89813
G1 X117.158 Y98.073 E39.92324
G1 X127.927 Y108.842 E40.69722
G1 X127.433 Y108.842 E40.72233
G1 X117.158 Y98.567 E41.46081
G1 X117.158 Y99.061 E41.48592
G1 X126.939 Y108.842 E42.18889
G1 X126.445 Y108.842 E42.214
G1 X117.158 Y99.555 E42.88147
G1 X117.158 Y100.049 E42.90658
G1 X125.951 Y108.842 E43.53854
G1 X125.457 Y108.842 E43.56365
G1 X117.158 Y100.543 E44.16011
G1 X117.158 Y101.037 E44.18522
G1 X124.963 Y108.842 E44.74618
G1 X124.469 Y108.842 E44.77129
G1 X117.158 Y101.531 E45.29674
G1 X117.158 Y102.025 E45.32185
G1 X123.975 Y108.842 E45.8118
G1 X123.481 Y108.842 E45.83691
G1 X117.158 Y102.519 E46.29135
G1 X117.158 Y103.012 E46.3164
G1 X122.988 Y108.842 E46.73541
G1 X122.494 Y108.842 E46.76052
G1 X117.158 Y103.506 E47.14403
G1 X117.158 Y104 E47.16914
G1 X122 Y108.842 E47.51714
G1 X121.506 Y108.842 E47.54225
G1 X117.158 Y104.494 E47.85475
G1 X117.158 Y104.988 E47.87986
G1 X121.012 Y108.842 E48.15685
G1 X120.518 Y108.842 E48.18196
G1 X117.158 Y105.482 E48.42345
G1 X117.158 Y105.976 E48.44856
G1 X120.024 Y108.842 E48.65454
G1 X119.53 Y108.842 E48.67965
G1 X117.158 Y106.47 E48.85013
G1 X117.158 Y106.964 E48.87524
G1 X119.036 Y108.842 E49.01021
G1 X118.542 Y108.842 E49.03532
G1 X117.158 Y107.458 E49.13479
G1 X117.158 Y107.952 E49.1599
G1 X118.048 Y108.842 E49.22387
G1 X117.554 Y108.842 E49.24898
G1 X117.003 Y108.29 E49.28862
;LAYER_CHANGE
;Z:0.65
;HEIGHT:0.3
G1 E47.28862 F2400
G92 E0
G1 Z.65 F7800
G1 X116.108 Y90.112
G1 E2 F2400
;TYPE:External perimeter
;WIDTH:0.404381
G1 F997
G1 X116.168 Y90.1 E2.00259
G1 X135.886 Y90.1 E2.83876
G1 X135.9 Y90.168 E2.8417
G1 X135.9 Y109.886 E3.67787
G1 X135.832 Y109.9 E3.68081
G1 X116.114 Y109.9 E4.51698
G1 X116.1 Y109.832 E4.51992
G1 X116.1 Y90.166 E5.35389
G1 X116.495 Y90.102 F7800
;LAYER_CHANGE
;Z:0.95
;HEIGHT:0.3
G1 Z.95 F7800
G1 X116.108 Y90.112
G1 F950
G1 X116.168 Y90.1 E5.35648
G1 X135.886 Y90.1 E6.19265
G1 X135.9 Y90.168 E6.19559
G1 X135.9 Y109.886 E7.03176
G1 X135.832 Y109.9 E7.0347
G1 X116.114 Y109.9 E7.87087
G1 X116.1 Y109.832 E7.87381
G1 X116.1 Y90.166 E8.70778
G1 X116.495 Y90.102 F7800
M106 S252.45
;LAYER_CHANGE
;Z:1.25
;HEIGHT:0.3
G1 Z1.25 F7800
G1 X116.108 Y90.112
G1 F950
G1 X116.168 Y90.1 E8.71037
G1 X135.886 Y90.1 E9.54654
G1 X135.9 Y90.168 E9.54948
G1 X135.9 Y109.886 E10.38565
G1 X135.832 Y109.9 E10.38859
G1 X116.114 Y109.9 E11.22476
G1 X116.1 Y109.832 E11.2277
G1 X116.1 Y90.166 E12.06167
G1 X116.495 Y90.102 F7800
;LAYER_CHANGE
;Z:1.55
;HEIGHT:0.3
G1 Z1.55 F7800
G1 X116.108 Y90.112
G1 F950
G1 X116.168 Y90.1 E12.06426
G1 X135.886 Y90.1 E12.90043
G1 X135.9 Y90.168 E12.90337
G1 X135.9 Y109.886 E13.73954
G1 X135.832 Y109.9 E13.74248
G1 X116.114 Y109.9 E14.57865
G1 X116.1 Y109.832 E14.58159
G1 X116.1 Y90.166 E15.41556
G1 X116.495 Y90.102 F7800
;LAYER_CHANGE
;Z:1.85
;HEIGHT:0.3
G1 Z1.85 F7800
G1 X116.108 Y90.112
G1 F950
G1 X116.168 Y90.1 E15.41815
G1 X135.886 Y90.1 E16.25432
G1 X135.9 Y90.168 E16.25726
G1 X135.9 Y109.886 E17.09343
G1 X135.832 Y109.9 E17.09637
G1 X116.114 Y109.9 E17.93254
G1 X116.1 Y109.832 E17.93548
G1 X116.1 Y90.166 E18.76945
G1 X116.495 Y90.102 F7800
;LAYER_CHANGE
;Z:2.15
;HEIGHT:0.3
G1 Z2.15 F7800
G1 X116.108 Y90.112
G1 F950
G1 X116.168 Y90.1 E18.77204
G1 X135.886 Y90.1 E19.60821
G1 X135.9 Y90.168 E19.61115
G1 X135.9 Y109.886 E20.44732
G1 X135.832 Y109.9 E20.45026
G1 X116.114 Y109.9 E21.28643
G1 X116.1 Y109.832 E21.28937
G1 X116.1 Y90.166 E22.12334
G1 X116.495 Y90.102 F7800
;LAYER_CHANGE
;Z:2.45
;HEIGHT:0.3
G1 Z2.45 F7800
G1 X116.108 Y90.112
G1 F950
G1 X116.168 Y90.1 E22.12593
G1 X135.886 Y90.1 E22.9621
G1 X135.9 Y90.168 E22.96504
G1 X135.9 Y109.886 E23.80121
G1 X135.832 Y109.9 E23.80415
G1 X116.114 Y109.9 E24.64032
G1 X116.1 Y109.832 E24.64326
G1 X116.1 Y90.166 E25.47723
G1 X116.495 Y90.102 F7800
;LAYER_CHANGE
;Z:2.75
;HEIGHT:0.3
G1 Z2.75 F7800
G1 X116.108 Y90.112
G1 F950
G1 X116.168 Y90.1 E25.47982
G1 X135.886 Y90.1 E26.31599
G1 X135.9 Y90.168 E26.31893
G1 X135.9 Y109.886 E27.1551
G1 X135.832 Y109.9 E27.15804
G1 X116.114 Y109.9 E27.99421
G1 X116.1 Y109.832 E27.99715
G1 X116.1 Y90.166 E28.83112
G1 X116.495 Y90.102 F7800
;LAYER_CHANGE
;Z:3.05
;HEIGHT:0.3
G1 Z3.05 F7800
G1 X116.108 Y90.112
G1 F950
G1 X116.168 Y90.1 E28.83371
G1 X135.886 Y90.1 E29.66988
G1 X135.9 Y90.168 E29.67282
G1 X135.9 Y109.886 E30.50899
G1 X135.832 Y109.9 E30.51193
G1 X116.114 Y109.9 E31.3481
G1 X116.1 Y109.832 E31.35104
G1 X116.1 Y90.166 E32.18501
G1 X116.495 Y90.102 F7800
;LAYER_CHANGE
;Z:3.35
;HEIGHT:0.3
G1 Z3.35 F7800
G1 X116.108 Y90.112
G1 F950
G1 X116.168 Y90.1 E32.1876
G1 X135.886 Y90.1 E33.02377
G1 X135.9 Y90.168 E33.02671
G1 X135.9 Y109.886 E33.86288
G1 X135.832 Y109.9 E33.86582
G1 X116.114 Y109.9 E34.70199
G1 X116.1 Y109.832 E34.70493
G1 X116.1 Y90.166 E35.5389
G1 X116.495 Y90.102 F7800
;LAYER_CHANGE
;Z:3.65
;HEIGHT:0.3
G1 Z3.65 F7800
G1 X116.108 Y90.112
G1 F950
G1 X116.168 Y90.1 E35.54149
G1 X135.886 Y90.1 E36.37766
G1 X135.9 Y90.168 E36.3806
G1 X135.9 Y109.886 E37.21677
G1 X135.832 Y109.9 E37.21971
G1 X116.114 Y109.9 E38.05588
G1 X116.1 Y109.832 E38.05882
G1 X116.1 Y90.166 E38.89279
G1 X116.495 Y90.102 F7800
;LAYER_CHANGE
;Z:3.95
;HEIGHT:0.3
G1 Z3.95 F7800
G1 X116.108 Y90.112
G1 F950
G1 X116.168 Y90.1 E38.89538
G1 X135.886 Y90.1 E39.73155
G1 X135.9 Y90.168 E39.73449
G1 X135.9 Y109.886 E40.57066
G1 X135.832 Y109.9 E40.5736
G1 X116.114 Y109.9 E41.40977
G1 X116.1 Y109.832 E41.41271
G1 X116.1 Y90.166 E42.24668
G1 X116.495 Y90.102 F7800
;LAYER_CHANGE
;Z:4.25
;HEIGHT:0.3
G1 Z4.25 F7800
G1 X116.108 Y90.112
G1 F950
G1 X116.168 Y90.1 E42.24927
G1 X135.886 Y90.1 E43.08544
G1 X135.9 Y90.168 E43.08838
G1 X135.9 Y109.886 E43.92455
G1 X135.832 Y109.9 E43.92749
G1 X116.114 Y109.9 E44.76366
G1 X116.1 Y109.832 E44.7666
G1 X116.1 Y90.166 E45.60057
G1 X116.495 Y90.102 F7800
;LAYER_CHANGE
;Z:4.55
;HEIGHT:0.3
G1 Z4.55 F7800
G1 X116.108 Y90.112
G1 F950
G1 X116.168 Y90.1 E45.60316
G1 X135.886 Y90.1 E46.43933
G1 X135.9 Y90.168 E46.44227
G1 X135.9 Y109.886 E47.27844
G1 X135.832 Y109.9 E47.28138
G1 X116.114 Y109.9 E48.11755
G1 X116.1 Y109.832 E48.12049
G1 X116.1 Y90.166 E48.95446
G1 X116.495 Y90.102 F7800
;LAYER_CHANGE
;Z:4.85
;HEIGHT:0.3
G1 Z4.85 F7800
G1 X116.108 Y90.112
G1 F950
G1 X116.168 Y90.1 E48.95705
G1 X135.886 Y90.1 E49.79322
G1 X135.9 Y90.168 E49.79616
G1 X135.9 Y109.886 E50.63233
G1 X135.832 Y109.9 E50.63527
G1 X116.114 Y109.9 E51.47144
G1 X116.1 Y109.832 E51.47438
G1 X116.1 Y90.166 E52.30835
G1 X116.495 Y90.102 F7800
;LAYER_CHANGE
;Z:5.15
;HEIGHT:0.3
G1 Z5.15 F7800
G1 X116.108 Y90.112
G1 F950
G1 X116.168 Y90.1 E52.31094
G1 X135.886 Y90.1 E53.14711
G1 X135.9 Y90.168 E53.15005
G1 X135.9 Y109.886 E53.98622
G1 X135.832 Y109.9 E53.98916
G1 X116.114 Y109.9 E54.82533
G1 X116.1 Y109.832 E54.82827
G1 X116.1 Y90.166 E55.66224
G1 X116.495 Y90.102 F7800
;LAYER_CHANGE
;Z:5.45
;HEIGHT:0.3
G1 Z5.45 F7800
G1 X116.108 Y90.112
G1 F950
G1 X116.168 Y90.1 E55.66483
G1 X135.886 Y90.1 E56.501
G1 X135.9 Y90.168 E56.50394
G1 X135.9 Y109.886 E57.34011
G1 X135.832 Y109.9 E57.34305
G1 X116.114 Y109.9 E58.17922
G1 X116.1 Y109.832 E58.18216
G1 X116.1 Y90.166 E59.01613
G1 X116.495 Y90.102 F7800
;LAYER_CHANGE
;Z:5.75
;HEIGHT:0.3
G1 Z5.75 F7800
G1 X116.108 Y90.112
G1 F950
G1 X116.168 Y90.1 E59.01872
G1 X135.886 Y90.1 E59.85489
G1 X135.9 Y90.168 E59.85783
G1 X135.9 Y109.886 E60.694
G1 X135.832 Y109.9 E60.69694
G1 X116.114 Y109.9 E61.53311
G1 X116.1 Y109.832 E61.53605
G1 X116.1 Y90.166 E62.37002
G1 X116.495 Y90.102 F7800
;LAYER_CHANGE
;Z:6.05
;HEIGHT:0.3
G1 Z6.05 F7800
G1 X116.108 Y90.112
G1 F950
G1 X116.168 Y90.1 E62.37261
G1 X135.886 Y90.1 E63.20878
G1 X135.9 Y90.168 E63.21172
G1 X135.9 Y109.886 E64.04789
G1 X135.832 Y109.9 E64.05083
G1 X116.114 Y109.9 E64.887
G1 X116.1 Y109.832 E64.88994
G1 X116.1 Y90.166 E65.72391
G1 X116.495 Y90.102 F7800
;LAYER_CHANGE
;Z:6.35
;HEIGHT:0.3
G1 Z6.35 F7800
G1 X116.108 Y90.112
G1 F950
G1 X116.168 Y90.1 E65.7265
G1 X135.886 Y90.1 E66.56267
G1 X135.9 Y90.168 E66.56561
G1 X135.9 Y109.886 E67.40178
G1 X135.832 Y109.9 E67.40472
G1 X116.114 Y109.9 E68.24089
G1 X116.1 Y109.832 E68.24383
G1 X116.1 Y90.166 E69.0778
G1 X116.495 Y90.102 F7800
;LAYER_CHANGE
;Z:6.65
;HEIGHT:0.3
G1 Z6.65 F7800
G1 X116.108 Y90.112
G1 F950
G1 X116.168 Y90.1 E69.08039
G1 X135.886 Y90.1 E69.91656
G1 X135.9 Y90.168 E69.9195
G1 X135.9 Y109.886 E70.75567
G1 X135.832 Y109.9 E70.75861
G1 X116.114 Y109.9 E71.59478
G1 X116.1 Y109.832 E71.59772
G1 X116.1 Y90.166 E72.43169
G1 X116.495 Y90.102 F7800
;LAYER_CHANGE
;Z:6.95
;HEIGHT:0.3
G1 Z6.95 F7800
G1 X116.108 Y90.112
G1 F950
G1 X116.168 Y90.1 E72.43428
G1 X135.886 Y90.1 E73.27045
G1 X135.9 Y90.168 E73.27339
G1 X135.9 Y109.886 E74.10956
G1 X135.832 Y109.9 E74.1125
G1 X116.114 Y109.9 E74.94867
G1 X116.1 Y109.832 E74.95161
G1 X116.1 Y90.166 E75.78558
G1 X116.495 Y90.102 F7800
;LAYER_CHANGE
;Z:7.25
;HEIGHT:0.3
G1 Z7.25 F7800
G1 X116.108 Y90.112
G1 F950
G1 X116.168 Y90.1 E75.78817
G1 X135.886 Y90.1 E76.62434
G1 X135.9 Y90.168 E76.62728
G1 X135.9 Y109.886 E77.46345
G1 X135.832 Y109.9 E77.46639
G1 X116.114 Y109.9 E78.30256
G1 X116.1 Y109.832 E78.3055
G1 X116.1 Y90.166 E79.13947
G1 X116.495 Y90.102 F7800
;LAYER_CHANGE
;Z:7.55
;HEIGHT:0.3
G1 Z7.55 F7800
G1 X116.108 Y90.112
G1 F950
G1 X116.168 Y90.1 E79.14206
G1 X135.886 Y90.1 E79.97823
G1 X135.9 Y90.168 E79.98117
G1 X135.9 Y109.886 E80.81734
G1 X135.832 Y109.9 E80.82028
G1 X116.114 Y109.9 E81.65645
G1 X116.1 Y109.832 E81.65939
G1 X116.1 Y90.166 E82.49336
G1 X116.495 Y90.102 F7800
;LAYER_CHANGE
;Z:7.85
;HEIGHT:0.3
G1 Z7.85 F7800
G1 X116.108 Y90.112
G1 F950
G1 X116.168 Y90.1 E82.49595
G1 X135.886 Y90.1 E83.33212
G1 X135.9 Y90.168 E83.33506
G1 X135.9 Y109.886 E84.17123
G1 X135.832 Y109.9 E84.17417
G1 X116.114 Y109.9 E85.01034
G1 X116.1 Y109.832 E85.01328
G1 X116.1 Y90.166 E85.84725
G1 X116.495 Y90.102 F7800
;LAYER_CHANGE
;Z:8.15
;HEIGHT:0.3
G1 Z8.15 F7800
G1 X116.108 Y90.112
G1 F950
G1 X116.168 Y90.1 E85.84984
G1 X135.886 Y90.1 E86.68601
G1 X135.9 Y90.168 E86.68895
G1 X135.9 Y109.886 E87.52512
G1 X135.832 Y109.9 E87.52806
G1 X116.114 Y109.9 E88.36423
G1 X116.1 Y109.832 E88.36717
G1 X116.1 Y90.166 E89.20114
G1 X116.495 Y90.102 F7800
;LAYER_CHANGE
;Z:8.45
;HEIGHT:0.3
G1 Z8.45 F7800
G1 X116.108 Y90.112
G1 F950
G1 X116.168 Y90.1 E89.20373
G1 X135.886 Y90.1 E90.0399
G1 X135.9 Y90.168 E90.04284
G1 X135.9 Y109.886 E90.87901
G1 X135.832 Y109.9 E90.88195
G1 X116.114 Y109.9 E91.71812
G1 X116.1 Y109.832 E91.72106
G1 X116.1 Y90.166 E92.55503
G1 X116.495 Y90.102 F7800
;LAYER_CHANGE
;Z:8.75
;HEIGHT:0.3
G1 Z8.75 F7800
G1 X116.108 Y90.112
G1 F950
G1 X116.168 Y90.1 E92.55762
G1 X135.886 Y90.1 E93.39379
G1 X135.9 Y90.168 E93.39673
G1 X135.9 Y109.886 E94.2329
G1 X135.832 Y109.9 E94.23584
G1 X116.114 Y109.9 E95.07201
G1 X116.1 Y109.832 E95.07495
G1 X116.1 Y90.166 E95.90892
G1 X116.495 Y90.102 F7800
;LAYER_CHANGE
;Z:9.05
;HEIGHT:0.3
G1 Z9.05 F7800
G1 X116.108 Y90.112
G1 F950
G1 X116.168 Y90.1 E95.91151
G1 X135.886 Y90.1 E96.74768
G1 X135.9 Y90.168 E96.75062
G1 X135.9 Y109.886 E97.58679
G1 X135.832 Y109.9 E97.58973
G1 X116.114 Y109.9 E98.4259
G1 X116.1 Y109.832 E98.42884
G1 X116.1 Y90.166 E99.26281
G1 X116.495 Y90.102 F7800
;LAYER_CHANGE
;Z:9.35
;HEIGHT:0.3
G1 Z9.35 F7800
G1 X116.108 Y90.112
G1 F950
G1 X116.168 Y90.1 E99.2654
G1 X135.886 Y90.1 E100.10157
G1 X135.9 Y90.168 E100.10451
G1 X135.9 Y109.886 E100.94068
G1 X135.832 Y109.9 E100.94362
G1 X116.114 Y109.9 E101.77979
G1 X116.1 Y109.832 E101.78273
G1 X116.1 Y90.166 E102.6167
G1 X116.495 Y90.102 F7800
;LAYER_CHANGE
;Z:9.65
;HEIGHT:0.299999
G1 Z9.65 F7800
G1 X116.108 Y90.112
G1 F950
G1 X116.168 Y90.1 E102.61929
G1 X135.886 Y90.1 E103.45546
G1 X135.9 Y90.168 E103.4584
G1 X135.9 Y109.886 E104.29457
G1 X135.832 Y109.9 E104.29751
G1 X116.114 Y109.9 E105.13368
G1 X116.1 Y109.832 E105.13662
G1 X116.1 Y90.166 E105.97059
G1 X116.495 Y90.102 F7800
;LAYER_CHANGE
;Z:9.95
;HEIGHT:0.3
G1 Z9.95 F7800
G1 X116.108 Y90.112
G1 F950
G1 X116.168 Y90.1 E105.97318
G1 X135.886 Y90.1 E106.80935
G1 X135.9 Y90.168 E106.81229
G1 X135.9 Y109.886 E107.64846
G1 X135.832 Y109.9 E107.6514
G1 X116.114 Y109.9 E108.48757
G1 X116.1 Y109.832 E108.49051
G1 X116.1 Y90.166 E109.32448
G1 X116.495 Y90.102 F7800
;LAYER_CHANGE
;Z:10.25
;HEIGHT:0.3
G1 Z10.25 F7800
G1 X116.108 Y90.112
G1 F950
G1 X116.168 Y90.1 E109.32707
G1 X135.886 Y90.1 E110.16324
G1 X135.9 Y90.168 E110.16618
G1 X135.9 Y109.886 E111.00235
G1 X135.832 Y109.9 E111.00529
G1 X116.114 Y109.9 E111.84146
G1 X116.1 Y109.832 E111.8444
G1 X116.1 Y90.166 E112.67837
G1 X116.495 Y90.102 F7800
;LAYER_CHANGE
;Z:10.55
;HEIGHT:0.3
G1 Z10.55 F7800
G1 X116.108 Y90.112
G1 F950
G1 X116.168 Y90.1 E112.68096
G1 X135.886 Y90.1 E113.51713
G1 X135.9 Y90.168 E113.52007
G1 X135.9 Y109.886 E114.35624
G1 X135.832 Y109.9 E114.35918
G1 X116.114 Y109.9 E115.19535
G1 X116.1 Y109.832 E115.19829
G1 X116.1 Y90.166 E116.03226
G1 X116.495 Y90.102 F7800
;LAYER_CHANGE
;Z:10.85
;HEIGHT:0.3
G1 Z10.85 F7800
G1 X116.108 Y90.112
G1 F950
G1 X116.168 Y90.1 E116.03485
G1 X135.886 Y90.1 E116.87102
G1 X135.9 Y90.168 E116.87396
G1 X135.9 Y109.886 E117.71013
G1 X135.832 Y109.9 E117.71307
G1 X116.114 Y109.9 E118.54924
G1 X116.1 Y109.832 E118.55218
G1 X116.1 Y90.166 E119.38615
G1 X116.495 Y90.102 F7800
;LAYER_CHANGE
;Z:11.15
;HEIGHT:0.299999
G1 Z11.15 F7800
G1 X116.108 Y90.112
G1 F950
G1 X116.168 Y90.1 E119.38874
G1 X135.886 Y90.1 E120.22491
G1 X135.9 Y90.168 E120.22785
G1 X135.9 Y109.886 E121.06402
G1 X135.832 Y109.9 E121.06696
G1 X116.114 Y109.9 E121.90313
G1 X116.1 Y109.832 E121.90607
G1 X116.1 Y90.166 E122.74004
G1 X116.495 Y90.102 F7800
;LAYER_CHANGE
;Z:11.45
;HEIGHT:0.3
G1 Z11.45 F7800
G1 X116.108 Y90.112
G1 F950
G1 X116.168 Y90.1 E122.74263
G1 X135.886 Y90.1 E123.5788
G1 X135.9 Y90.168 E123.58174
G1 X135.9 Y109.886 E124.41791
G1 X135.832 Y109.9 E124.42085
G1 X116.114 Y109.9 E125.25702
G1 X116.1 Y109.832 E125.25996
G1 X116.1 Y90.166 E126.09393
G1 X116.495 Y90.102 F7800
;LAYER_CHANGE
;Z:11.75
;HEIGHT:0.3
G1 Z11.75 F7800
G1 X116.108 Y90.112
G1 F950
G1 X116.168 Y90.1 E126.09652
G1 X135.886 Y90.1 E126.93269
G1 X135.9 Y90.168 E126.93563
G1 X135.9 Y109.886 E127.7718
G1 X135.832 Y109.9 E127.77474
G1 X116.114 Y109.9 E128.61091
G1 X116.1 Y109.832 E128.61385
G1 X116.1 Y90.166 E129.44782
G1 X116.495 Y90.102 F7800
;LAYER_CHANGE
;Z:12.05
;HEIGHT:0.3
G1 Z12.05 F7800
G1 X116.108 Y90.112
G1 F950
G1 X116.168 Y90.1 E129.45041
G1 X135.886 Y90.1 E130.28658
G1 X135.9 Y90.168 E130.28952
G1 X135.9 Y109.886 E131.12569
G1 X135.832 Y109.9 E131.12863
G1 X116.114 Y109.9 E131.9648
G1 X116.1 Y109.832 E131.96774
G1 X116.1 Y90.166 E132.80171
G1 X116.495 Y90.102 F7800
;LAYER_CHANGE
;Z:12.35
;HEIGHT:0.3
G1 Z12.35 F7800
G1 X116.108 Y90.112
G1 F950
G1 X116.168 Y90.1 E132.8043
G1 X135.886 Y90.1 E133.64047
G1 X135.9 Y90.168 E133.64341
G1 X135.9 Y109.886 E134.47958
G1 X135.832 Y109.9 E134.48252
G1 X116.114 Y109.9 E135.31869
G1 X116.1 Y109.832 E135.32163
G1 X116.1 Y90.166 E136.1556
G1 X116.495 Y90.102 F7800
;LAYER_CHANGE
;Z:12.65
;HEIGHT:0.299999
G1 Z12.65 F7800
G1 X116.108 Y90.112
G1 F950
G1 X116.168 Y90.1 E136.15819
G1 X135.886 Y90.1 E136.99436
G1 X135.9 Y90.168 E136.9973
G1 X135.9 Y109.886 E137.83347
G1 X135.832 Y109.9 E137.83641
G1 X116.114 Y109.9 E138.67258
G1 X116.1 Y109.832 E138.67552
G1 X116.1 Y90.166 E139.50949
G1 X116.495 Y90.102 F7800
;LAYER_CHANGE
;Z:12.95
;HEIGHT:0.3
G1 Z12.95 F7800
G1 X116.108 Y90.112
G1 F950
G1 X116.168 Y90.1 E139.51208
G1 X135.886 Y90.1 E140.34825
G1 X135.9 Y90.168 E140.35119
G1 X135.9 Y109.886 E141.18736
G1 X135.832 Y109.9 E141.1903
G1 X116.114 Y109.9 E142.02647
G1 X116.1 Y109.832 E142.02941
G1 X116.1 Y90.166 E142.86338
G1 X116.495 Y90.102 F7800
;LAYER_CHANGE
;Z:13.25
;HEIGHT:0.3
G1 Z13.25 F7800
G1 X116.108 Y90.112
G1 F950
G1 X116.168 Y90.1 E142.86597
G1 X135.886 Y90.1 E143.70214
G1 X135.9 Y90.168 E143.70508
G1 X135.9 Y109.886 E144.54125
G1 X135.832 Y109.9 E144.54419
G1 X116.114 Y109.9 E145.38036
G1 X116.1 Y109.832 E145.3833
G1 X116.1 Y90.166 E146.21727
G1 X116.495 Y90.102 F7800
;LAYER_CHANGE
;Z:13.55
;HEIGHT:0.3
G1 Z13.55 F7800
G1 X116.108 Y90.112
G1 F950
G1 X116.168 Y90.1 E146.21986
G1 X135.886 Y90.1 E147.05603
G1 X135.9 Y90.168 E147.05897
G1 X135.9 Y109.886 E147.89514
G1 X135.832 Y109.9 E147.89808
G1 X116.114 Y109.9 E148.73425
G1 X116.1 Y109.832 E148.73719
G1 X116.1 Y90.166 E149.57116
G1 X116.495 Y90.102 F7800
;LAYER_CHANGE
;Z:13.85
;HEIGHT:0.3
G1 Z13.85 F7800
G1 X116.108 Y90.112
G1 F950
G1 X116.168 Y90.1 E149.57375
G1 X135.886 Y90.1 E150.40992
G1 X135.9 Y90.168 E150.41286
G1 X135.9 Y109.886 E151.24903
G1 X135.832 Y109.9 E151.25197
G1 X116.114 Y109.9 E152.08814
G1 X116.1 Y109.832 E152.09108
G1 X116.1 Y90.166 E152.92505
G1 X116.495 Y90.102 F7800
;LAYER_CHANGE
;Z:14.15
;HEIGHT:0.299999
G1 Z14.15 F7800
G1 X116.108 Y90.112
G1 F950
G1 X116.168 Y90.1 E152.92764
G1 X135.886 Y90.1 E153.76381
G1 X135.9 Y90.168 E153.76675
G1 X135.9 Y109.886 E154.60292
G1 X135.832 Y109.9 E154.60586
G1 X116.114 Y109.9 E155.44203
G1 X116.1 Y109.832 E155.44497
G1 X116.1 Y90.166 E156.27894
G1 X116.495 Y90.102 F7800
;LAYER_CHANGE
;Z:14.45
;HEIGHT:0.3
G1 Z14.45 F7800
G1 X116.108 Y90.112
G1 F950
G1 X116.168 Y90.1 E156.28153
G1 X135.886 Y90.1 E157.1177
G1 X135.9 Y90.168 E157.12064
G1 X135.9 Y109.886 E157.95681
G1 X135.832 Y109.9 E157.95975
G1 X116.114 Y109.9 E158.79592
G1 X116.1 Y109.832 E158.79886
G1 X116.1 Y90.166 E159.63283
G1 X116.495 Y90.102 F7800
;LAYER_CHANGE
;Z:14.75
;HEIGHT:0.3
G1 Z14.75 F7800
G1 X116.108 Y90.112
G1 F950
G1 X116.168 Y90.1 E159.63542
G1 X135.886 Y90.1 E160.47159
G1 X135.9 Y90.168 E160.47453
G1 X135.9 Y109.886 E161.3107
G1 X135.832 Y109.9 E161.31364
G1 X116.114 Y109.9 E162.14981
G1 X116.1 Y109.832 E162.15275
G1 X116.1 Y90.166 E162.98672
G1 X116.495 Y90.102 F7800
;LAYER_CHANGE
;Z:15.05
;HEIGHT:0.3
G1 Z15.05 F7800
G1 X116.108 Y90.112
G1 F950
G1 X116.168 Y90.1 E162.98931
G1 X135.886 Y90.1 E163.82548
G1 X135.9 Y90.168 E163.82842
G1 X135.9 Y109.886 E164.66459
G1 X135.832 Y109.9 E164.66753
G1 X116.114 Y109.9 E165.5037
G1 X116.1 Y109.832 E165.50664
G1 X116.1 Y90.166 E166.34061
G1 X116.495 Y90.102 F7800
;LAYER_CHANGE
;Z:15.35
;HEIGHT:0.3
G1 Z15.35 F7800
G1 X116.108 Y90.112
G1 F950
G1 X116.168 Y90.1 E166.3432
G1 X135.886 Y90.1 E167.17937
G1 X135.9 Y90.168 E167.18231
G1 X135.9 Y109.886 E168.01848
G1 X135.832 Y109.9 E168.02142
G1 X116.114 Y109.9 E168.85759
G1 X116.1 Y109.832 E168.86053
G1 X116.1 Y90.166 E169.6945
G1 X116.495 Y90.102 F7800
;LAYER_CHANGE
;Z:15.65
;HEIGHT:0.299999
G1 Z15.65 F7800
G1 X116.108 Y90.112
G1 F950
G1 X116.168 Y90.1 E169.69709
G1 X135.886 Y90.1 E170.53326
G1 X135.9 Y90.168 E170.5362
G1 X135.9 Y109.886 E171.37237
G1 X135.832 Y109.9 E171.37531
G1 X116.114 Y109.9 E172.21148
G1 X116.1 Y109.832 E172.21442
G1 X116.1 Y90.166 E173.04839
G1 X116.495 Y90.102 F7800
;LAYER_CHANGE
;Z:15.95
;HEIGHT:0.3
G1 Z15.95 F7800
G1 X116.108 Y90.112
G1 F950
G1 X116.168 Y90.1 E173.05098
G1 X135.886 Y90.1 E173.88715
G1 X135.9 Y90.168 E173.89009
G1 X135.9 Y109.886 E174.72626
G1 X135.832 Y109.9 E174.7292
G1 X116.114 Y109.9 E175.56537
G1 X116.1 Y109.832 E175.56831
G1 X116.1 Y90.166 E176.40228
G1 X116.495 Y90.102 F7800
;LAYER_CHANGE
;Z:16.25
;HEIGHT:0.3
G1 Z16.25 F7800
G1 X116.108 Y90.112
G1 F950
G1 X116.168 Y90.1 E176.40487
G1 X135.886 Y90.1 E177.24104
G1 X135.9 Y90.168 E177.24398
G1 X135.9 Y109.886 E178.08015
G1 X135.832 Y109.9 E178.08309
G1 X116.114 Y109.9 E178.91926
G1 X116.1 Y109.832 E178.9222
G1 X116.1 Y90.166 E179.75617
G1 X116.495 Y90.102 F7800
;LAYER_CHANGE
;Z:16.55
;HEIGHT:0.299999
G1 Z16.55 F7800
G1 X116.108 Y90.112
G1 F950
G1 X116.168 Y90.1 E179.75876
G1 X135.886 Y90.1 E180.59493
G1 X135.9 Y90.168 E180.59787
G1 X135.9 Y109.886 E181.43404
G1 X135.832 Y109.9 E181.43698
G1 X116.114 Y109.9 E182.27315
G1 X116.1 Y109.832 E182.27609
G1 X116.1 Y90.166 E183.11006
G1 X116.495 Y90.102 F7800
;LAYER_CHANGE
;Z:16.85
;HEIGHT:0.300001
G1 Z16.85 F7800
G1 X116.108 Y90.112
G1 F950
G1 X116.168 Y90.1 E183.11265
G1 X135.886 Y90.1 E183.94882
G1 X135.9 Y90.168 E183.95176
G1 X135.9 Y109.886 E184.78793
G1 X135.832 Y109.9 E184.79087
G1 X116.114 Y109.9 E185.62704
G1 X116.1 Y109.832 E185.62998
G1 X116.1 Y90.166 E186.46395
G1 X116.495 Y90.102 F7800
;LAYER_CHANGE
;Z:17.15
;HEIGHT:0.299999
G1 Z17.15 F7800
G1 X116.108 Y90.112
G1 F950
G1 X116.168 Y90.1 E186.46654
G1 X135.886 Y90.1 E187.30271
G1 X135.9 Y90.168 E187.30565
G1 X135.9 Y109.886 E188.14182
G1 X135.832 Y109.9 E188.14476
G1 X116.114 Y109.9 E188.98093
G1 X116.1 Y109.832 E188.98387
G1 X116.1 Y90.166 E189.81784
G1 X116.495 Y90.102 F7800
;LAYER_CHANGE
;Z:17.45
;HEIGHT:0.300001
G1 Z17.45 F7800
G1 X116.108 Y90.112
G1 F950
G1 X116.168 Y90.1 E189.82043
G1 X135.886 Y90.1 E190.6566
G1 X135.9 Y90.168 E190.65954
G1 X135.9 Y109.886 E191.49571
G1 X135.832 Y109.9 E191.49865
G1 X116.114 Y109.9 E192.33482
G1 X116.1 Y109.832 E192.33776
G1 X116.1 Y90.166 E193.17173
G1 X116.495 Y90.102 F7800
;LAYER_CHANGE
;Z:17.75
;HEIGHT:0.299999
G1 Z17.75 F7800
G1 X116.108 Y90.112
G1 F950
G1 X116.168 Y90.1 E193.17432
G1 X135.886 Y90.1 E194.01049
G1 X135.9 Y90.168 E194.01343
G1 X135.9 Y109.886 E194.8496
G1 X135.832 Y109.9 E194.85254
G1 X116.114 Y109.9 E195.68871
G1 X116.1 Y109.832 E195.69165
G1 X116.1 Y90.166 E196.52562
G1 X116.495 Y90.102 F7800
;LAYER_CHANGE
;Z:18.05
;HEIGHT:0.299999
G1 Z18.05 F7800
G1 X116.108 Y90.112
G1 F950
G1 X116.168 Y90.1 E196.52821
G1 X135.886 Y90.1 E197.36438
G1 X135.9 Y90.168 E197.36732
G1 X135.9 Y109.886 E198.20349
G1 X135.832 Y109.9 E198.20643
G1 X116.114 Y109.9 E199.0426
G1 X116.1 Y109.832 E199.04554
G1 X116.1 Y90.166 E199.87951
G1 X116.495 Y90.102 F7800
;LAYER_CHANGE
;Z:18.35
;HEIGHT:0.300001
G1 Z18.35 F7800
G1 X116.108 Y90.112
G1 F950
G1 X116.168 Y90.1 E199.8821
G1 X135.886 Y90.1 E200.71827
G1 X135.9 Y90.168 E200.72121
G1 X135.9 Y109.886 E201.55738
G1 X135.832 Y109.9 E201.56032
G1 X116.114 Y109.9 E202.39649
G1 X116.1 Y109.832 E202.39943
G1 X116.1 Y90.166 E203.2334
G1 X116.495 Y90.102 F7800
;LAYER_CHANGE
;Z:18.65
;HEIGHT:0.299999
G1 Z18.65 F7800
G1 X116.108 Y90.112
G1 F950
G1 X116.168 Y90.1 E203.23599
G1 X135.886 Y90.1 E204.07216
G1 X135.9 Y90.168 E204.0751
G1 X135.9 Y109.886 E204.91127
G1 X135.832 Y109.9 E204.91421
G1 X116.114 Y109.9 E205.75038
G1 X116.1 Y109.832 E205.75332
G1 X116.1 Y90.166 E206.58729
G1 X116.495 Y90.102 F7800
;LAYER_CHANGE
;Z:18.95
;HEIGHT:0.300001
G1 Z18.95 F7800
G1 X116.108 Y90.112
G1 F950
G1 X116.168 Y90.1 E206.58988
G1 X135.886 Y90.1 E207.42605
G1 X135.9 Y90.168 E207.42899
G1 X135.9 Y109.886 E208.26516
G1 X135.832 Y109.9 E208.2681
G1 X116.114 Y109.9 E209.10427
G1 X116.1 Y109.832 E209.10721
G1 X116.1 Y90.166 E209.94118
G1 X116.495 Y90.102 F7800
;LAYER_CHANGE
;Z:19.25
;HEIGHT:0.299999
G1 Z19.25 F7800
G1 X116.108 Y90.112
G1 F950
G1 X116.168 Y90.1 E209.94377
G1 X135.886 Y90.1 E210.77994
G1 X135.9 Y90.168 E210.78288
G1 X135.9 Y109.886 E211.61905
G1 X135.832 Y109.9 E211.62199
G1 X116.114 Y109.9 E212.45816
G1 X116.1 Y109.832 E212.4611
G1 X116.1 Y90.166 E213.29507
G1 X116.495 Y90.102 F7800
;LAYER_CHANGE
;Z:19.55
;HEIGHT:0.299999
G1 Z19.55 F7800
G1 X116.108 Y90.112
G1 F950
G1 X116.168 Y90.1 E213.29766
G1 X135.886 Y90.1 E214.13383
G1 X135.9 Y90.168 E214.13677
G1 X135.9 Y109.886 E214.97294
G1 X135.832 Y109.9 E214.97588
G1 X116.114 Y109.9 E215.81205
G1 X116.1 Y109.832 E215.81499
G1 X116.1 Y90.166 E216.64896
G1 X116.495 Y90.102 F7800
;LAYER_CHANGE
;Z:19.85
;HEIGHT:0.300001
G1 Z19.85 F7800
G1 X116.108 Y90.112
G1 F950
G1 X116.168 Y90.1 E216.65155
G1 X135.886 Y90.1 E217.48772
G1 X135.9 Y90.168 E217.49066
G1 X135.9 Y109.886 E218.32683
G1 X135.832 Y109.9 E218.32977
G1 X116.114 Y109.9 E219.16594
G1 X116.1 Y109.832 E219.16888
G1 X116.1 Y90.166 E220.00285
G1 X116.495 Y90.102 F7800
G1 E218.00285 F2400
G92 E0
M107
;TYPE:Custom
; Filament-specific end gcode 
;END gcode for filament
M104 S0 ; turn off temperature
G28 X0  ; home X axis
M84     ; disable motors
; objects_info = {"objects":[]}
; filament used [mm] = 282.60
; filament used [cm3] = 0.68
; total filament used [g] = 0.00
; total filament cost = 0.00
; total filament used for wipe tower [g] = 0.00
; estimated printing time (normal mode) = 6m 21s
; estimated first layer printing time (normal mode) = 47s

; prusaslicer_config = begin
; arc_fitting = disabled
; autoemit_temperature_commands = 1
; automatic_extrusion_widths = 0
; automatic_infill_combination = 0
; automatic_infill_combination_max_layer_height = 100%
; avoid_crossing_curled_overhangs = 0
; avoid_crossing_perimeters = 0
; avoid_crossing_perimeters_max_detour = 0
; bed_custom_model = 
; bed_custom_texture = 
; bed_shape = 0x0,252x0,252x200,0x200
; bed_temperature = 60
; bed_temperature_extruder = 0
; before_layer_gcode = 
; between_objects_gcode = 
; binary_gcode = 0
; bottom_fill_pattern = monotonic
; bottom_solid_layers = 3
; bottom_solid_min_thickness = 0
; bridge_acceleration = 0
; bridge_angle = 0
; bridge_fan_speed = 100
; bridge_flow_ratio = 1
; bridge_speed = 60
; brim_separation = 0
; brim_type = outer_only
; brim_width = 0
; chamber_minimal_temperature = 0
; chamber_temperature = 0
; color_change_gcode = M600
; colorprint_heights = 
; complete_objects = 0
; cooling = 1
; cooling_perimeter_transition_distance = 0
; cooling_slowdown_logic = uniform_cooling
; cooling_tube_length = 5
; cooling_tube_retraction = 91.5
; custom_parameters_filament = ""
; custom_parameters_print = 
; custom_parameters_printer = 
; default_acceleration = 0
; default_filament_profile = 
; default_print_profile = 
; deretract_speed = 0
; disable_fan_first_layers = 3
; dont_support_bridges = 1
; draft_shield = disabled
; duplicate_distance = 6
; elefant_foot_compensation = 0
; enable_dynamic_fan_speeds = 0
; enable_dynamic_overhang_speeds = 0
; end_filament_gcode = "; Filament-specific end gcode \n;END gcode for filament\n"
; end_gcode = M104 S0 ; turn off temperature\nG28 X0  ; home X axis\nM84     ; disable motors\n
; ensure_vertical_shell_thickness = enabled
; external_perimeter_acceleration = 0
; external_perimeter_extrusion_width = 0.45
; external_perimeter_speed = 50%
; external_perimeters_first = 0
; extra_loading_move = -2
; extra_perimeters = 1
; extra_perimeters_on_overhangs = 0
; extruder_clearance_height = 20
; extruder_clearance_radius = 20
; extruder_colour = ""
; extruder_offset = 0x0
; extrusion_axis = E
; extrusion_multiplier = 1
; extrusion_width = 0.45
; fan_always_on = 0
; fan_below_layer_time = 60
; filament_abrasive = 0
; filament_colour = #29B2B2
; filament_cooling_final_speed = 3.4
; filament_cooling_initial_speed = 2.2
; filament_cooling_moves = 4
; filament_cost = 0
; filament_density = 0
; filament_deretract_speed = nil
; filament_diameter = 1.75
; filament_infill_max_crossing_speed = 0
; filament_infill_max_speed = 0
; filament_load_time = 0
; filament_loading_speed = 28
; filament_loading_speed_start = 3
; filament_max_volumetric_speed = 0
; filament_minimal_purge_on_wipe_tower = 15
; filament_multitool_ramming = 0
; filament_multitool_ramming_flow = 10
; filament_multitool_ramming_volume = 10
; filament_notes = ""
; filament_purge_multiplier = 100%
; filament_ramming_parameters = "120 100 6.6 6.8 7.2 7.6 7.9 8.2 8.7 9.4 9.9 10.0| 0.05 6.6 0.45 6.8 0.95 7.8 1.45 8.3 1.95 9.7 2.45 10 2.95 7.6 3.45 7.6 3.95 7.6 4.45 7.6 4.95 7.6"
; filament_retract_before_travel = nil
; filament_retract_before_wipe = nil
; filament_retract_layer_change = nil
; filament_retract_length = nil
; filament_retract_length_toolchange = nil
; filament_retract_lift = nil
; filament_retract_lift_above = nil
; filament_retract_lift_below = nil
; filament_retract_restart_extra = nil
; filament_retract_restart_extra_toolchange = nil
; filament_retract_speed = nil
; filament_seam_gap_distance = nil
; filament_settings_id = BCN3D+
; filament_shrinkage_compensation_xy = 0%
; filament_shrinkage_compensation_z = 0%
; filament_soluble = 0
; filament_spool_weight = 0
; filament_stamping_distance = 0
; filament_stamping_loading_speed = 20
; filament_toolchange_delay = 0
; filament_travel_lift_before_obstacle = nil
; filament_travel_max_lift = nil
; filament_travel_ramping_lift = nil
; filament_travel_slope = nil
; filament_type = PLA
; filament_unload_time = 0
; filament_unloading_speed = 90
; filament_unloading_speed_start = 100
; filament_vendor = (Unknown)
; filament_wipe = nil
; fill_angle = 45
; fill_density = 20%
; fill_pattern = stars
; first_layer_acceleration = 0
; first_layer_acceleration_over_raft = 0
; first_layer_bed_temperature = 60
; first_layer_extrusion_width = 0.42
; first_layer_height = 0.35
; first_layer_infill_speed = 0
; first_layer_speed = 30
; first_layer_speed_over_raft = 30
; first_layer_temperature = 215
; full_fan_speed_layer = 0
; fuzzy_skin = none
; fuzzy_skin_point_dist = 0.8
; fuzzy_skin_thickness = 0.3
; gap_fill_enabled = 1
; gap_fill_speed = 20
; gcode_comments = 0
; gcode_flavor = reprap
; gcode_label_objects = disabled
; gcode_resolution = 0.0125
; gcode_substitutions = 
; high_current_on_filament_swap = 0
; host_type = prusalink
; idle_temperature = nil
; infill_acceleration = 0
; infill_anchor = 600%
; infill_anchor_max = 50
; infill_every_layers = 1
; infill_extruder = 1
; infill_extrusion_width = 0.45
; infill_first = 0
; infill_overlap = 25%
; infill_speed = 80
; interface_shells = 0
; interlocking_beam = 0
; interlocking_beam_layer_count = 2
; interlocking_beam_width = 0.8
; interlocking_boundary_avoidance = 2
; interlocking_depth = 2
; interlocking_orientation = 22.5
; ironing = 0
; ironing_flowrate = 15%
; ironing_spacing = 0.1
; ironing_speed = 15
; ironing_type = top
; layer_gcode = 
; layer_height = 0.3
; machine_limits_usage = time_estimate_only
; machine_max_acceleration_e = 10000,5000
; machine_max_acceleration_extruding = 1500,1250
; machine_max_acceleration_retracting = 1500,1250
; machine_max_acceleration_travel = 1500,1250
; machine_max_acceleration_x = 9000,1000
; machine_max_acceleration_y = 9000,1000
; machine_max_acceleration_z = 500,200
; machine_max_feedrate_e = 120,120
; machine_max_feedrate_x = 500,200
; machine_max_feedrate_y = 500,200
; machine_max_feedrate_z = 12,12
; machine_max_jerk_e = 2.5,2.5
; machine_max_jerk_x = 10,10
; machine_max_jerk_y = 10,10
; machine_max_jerk_z = 0.2,0.4
; machine_max_junction_deviation = 0,0
; machine_min_extruding_rate = 0,0
; machine_min_travel_rate = 0,0
; max_fan_speed = 100
; max_layer_height = 0
; max_print_height = 200
; max_print_speed = 80
; max_volumetric_extrusion_rate_slope_negative = 0
; max_volumetric_extrusion_rate_slope_positive = 0
; max_volumetric_speed = 0
; min_bead_width = 85%
; min_fan_speed = 35
; min_feature_size = 25%
; min_layer_height = 0.07
; min_print_speed = 10
; min_skirt_length = 0
; mmu_segmented_region_interlocking_depth = 0
; mmu_segmented_region_max_width = 0
; multimaterial_purging = 140
; notes = 
; nozzle_diameter = 0.4
; nozzle_high_flow = 0
; only_one_perimeter_first_layer = 0
; only_retract_when_crossing_perimeters = 0
; ooze_prevention = 0
; output_filename_format = [input_filename_base].gcode
; over_bridge_speed = 0
; overhang_fan_speed_0 = 0
; overhang_fan_speed_1 = 0
; overhang_fan_speed_2 = 0
; overhang_fan_speed_3 = 0
; overhang_speed_0 = 15
; overhang_speed_1 = 15
; overhang_speed_2 = 20
; overhang_speed_3 = 25
; overhangs = 1
; parking_pos_retraction = 92
; pause_print_gcode = M601
; perimeter_acceleration = 0
; perimeter_extruder = 1
; perimeter_extrusion_width = 0.45
; perimeter_generator = arachne
; perimeter_speed = 60
; perimeters = 3
; physical_printer_settings_id = 
; post_process = 
; prefer_clockwise_movements = 0
; print_settings_id = BCN3D+
; printer_model = 
; printer_notes = 
; printer_settings_id = BCN3D+
; printer_technology = FFF
; printer_variant = 
; printer_vendor = 
; raft_contact_distance = 0.1
; raft_expansion = 1.5
; raft_first_layer_density = 90%
; raft_first_layer_expansion = 3
; raft_layers = 0
; remaining_times = 0
; resolution = 0
; retract_before_travel = 2
; retract_before_wipe = 0%
; retract_layer_change = 0
; retract_length = 2
; retract_length_toolchange = 10
; retract_lift = 0
; retract_lift_above = 0
; retract_lift_below = 0
; retract_restart_extra = 0
; retract_restart_extra_toolchange = 0
; retract_speed = 40
; scarf_seam_entire_loop = 0
; scarf_seam_length = 20
; scarf_seam_max_segment_length = 1
; scarf_seam_on_inner_perimeters = 0
; scarf_seam_only_on_smooth = 1
; scarf_seam_placement = nowhere
; scarf_seam_start_height = 0%
; seam_gap_distance = 15%
; seam_position = aligned
; silent_mode = 1
; single_extruder_multi_material = 0
; single_extruder_multi_material_priming = 1
; skirt_distance = 6
; skirt_height = 1
; skirts = 1
; slice_closing_radius = 0.049
; slicing_mode = regular
; slowdown_below_layer_time = 5
; small_perimeter_speed = 15
; solid_infill_acceleration = 0
; solid_infill_below_area = 70
; solid_infill_every_layers = 0
; solid_infill_extruder = 1
; solid_infill_extrusion_width = 0.45
; solid_infill_speed = 20
; spiral_vase = 0
; staggered_inner_seams = 0
; standby_temperature_delta = -5
; start_filament_gcode = "; Filament gcode\n"
; start_gcode = G28 ; home all axes\nG1 Z5 F5000 ; lift nozzle\n
; support_material = 0
; support_material_angle = 0
; support_material_auto = 1
; support_material_bottom_contact_distance = 0
; support_material_bottom_interface_layers = -1
; support_material_buildplate_only = 0
; support_material_closing_radius = 2
; support_material_contact_distance = 0.2
; support_material_enforce_layers = 0
; support_material_extruder = 1
; support_material_extrusion_width = 0.35
; support_material_interface_contact_loops = 0
; support_material_interface_extruder = 1
; support_material_interface_layers = 3
; support_material_interface_pattern = rectilinear
; support_material_interface_spacing = 0
; support_material_interface_speed = 100%
; support_material_pattern = rectilinear
; support_material_spacing = 2.5
; support_material_speed = 60
; support_material_style = grid
; support_material_synchronize_layers = 0
; support_material_threshold = 0
; support_material_with_sheath = 1
; support_material_xy_spacing = 50%
; support_tree_angle = 40
; support_tree_angle_slow = 25
; support_tree_branch_diameter = 2
; support_tree_branch_diameter_angle = 5
; support_tree_branch_diameter_double_wall = 3
; support_tree_branch_distance = 1
; support_tree_tip_diameter = 0.8
; support_tree_top_rate = 15%
; temperature = 215
; template_custom_gcode = 
; thick_bridges = 1
; thin_walls = 1
; thumbnails = 
; thumbnails_format = PNG
; toolchange_gcode = 
; top_fill_pattern = monotonic
; top_infill_extrusion_width = 0.4
; top_one_perimeter_type = none
; top_solid_infill_acceleration = 0
; top_solid_infill_speed = 15
; top_solid_layers = 3
; top_solid_min_thickness = 0
; travel_acceleration = 0
; travel_lift_before_obstacle = 0
; travel_max_lift = 0
; travel_ramping_lift = 0
; travel_short_distance_acceleration = 0
; travel_slope = 0
; travel_speed = 130
; travel_speed_z = 0
; use_firmware_retraction = 0
; use_relative_e_distances = 0
; use_volumetric_e = 0
; variable_layer_height = 1
; wall_distribution_count = 1
; wall_transition_angle = 10
; wall_transition_filter_deviation = 25%
; wall_transition_length = 100%
; wipe = 0
; wipe_into_infill = 0
; wipe_into_objects = 0
; wipe_tower = 0
; wipe_tower_acceleration = 0
; wipe_tower_bridging = 10
; wipe_tower_brim_width = 2
; wipe_tower_cone_angle = 0
; wipe_tower_extra_flow = 100%
; wipe_tower_extra_spacing = 100%
; wipe_tower_extruder = 0
; wipe_tower_no_sparse_layers = 0
; wipe_tower_width = 60
; wiping_volumes_matrix = 0
; wiping_volumes_use_custom_matrix = 0
; xy_size_compensation = 0
; z_offset = 0
; prusaslicer_config = end
